[
    {
        "Altitude(m)": 564215.2314578133,
        "Argument of Periapsis(deg)": 0.006622991110713501,
        "Eccentricity": 0.0,
        "Inclination(deg)": 53.0,
        "Latitude(deg)": -34.34455514354454,
        "Longitude(deg)": -124.97039551088878,
        "Mean Anomaly(deg)": 224.63709286757756,
        "RAAN(deg)": 124.99014336852804,
        "Satellite Name": "Starlink Shell 1 563",
        "Satellite Number": 563,
        "Semi-Major Axis(m)": 6931778.249405717,
        "Time(s)": 190
    },
    {
        "Altitude(m)": 564388.5146731792,
        "Argument of Periapsis(deg)": 0.0069715695902247375,
        "Eccentricity": 0.0,
        "Inclination(deg)": 53.0,
        "Latitude(deg)": -34.773859093321484,
        "Longitude(deg)": -124.45879099702928,
        "Mean Anomaly(deg)": 225.26392407113428,
        "RAAN(deg)": 124.98962459845055,
        "Satellite Name": "Starlink Shell 1 563",
        "Satellite Number": 563,
        "Semi-Major Axis(m)": 6931778.249405717,
        "Time(s)": 200
    },
    {
        "Altitude(m)": 564561.2439018857,
        "Argument of Periapsis(deg)": 0.007320148069735974,
        "Eccentricity": 0.0,
        "Inclination(deg)": 53.0,
        "Latitude(deg)": -35.20058453009882,
        "Longitude(deg)": -123.94146760912554,
        "Mean Anomaly(deg)": 225.89075527469106,
        "RAAN(deg)": 124.98910582837308,
        "Satellite Name": "Starlink Shell 1 563",
        "Satellite Number": 563,
        "Semi-Major Axis(m)": 6931778.249405717,
        "Time(s)": 210
    },
    {
        "Altitude(m)": 564733.3529752896,
        "Argument of Periapsis(deg)": 0.007668726549247212,
        "Eccentricity": 0.0,
        "Inclination(deg)": 53.0,
        "Latitude(deg)": -35.62466485603872,
        "Longitude(deg)": -123.41830898735715,
        "Mean Anomaly(deg)": 226.51758647824772,
        "RAAN(deg)": 124.98858705829561,
        "Satellite Name": "Starlink Shell 1 563",
        "Satellite Number": 563,
        "Semi-Major Axis(m)": 6931778.249405717,
        "Time(s)": 220
    },
    {
        "Altitude(m)": 564904.7758557909,
        "Argument of Periapsis(deg)": 0.00801730502875845,
        "Eccentricity": 0.0,
        "Inclination(deg)": 53.0,
        "Latitude(deg)": -36.04603194523356,
        "Longitude(deg)": -122.8891980587222,
        "Mean Anomaly(deg)": 227.14441768180447,
        "RAAN(deg)": 124.98806828821813,
        "Satellite Name": "Starlink Shell 1 563",
        "Satellite Number": 563,
        "Semi-Major Axis(m)": 6931778.249405717,
        "Time(s)": 230
    },
    {
        "Altitude(m)": 565075.4466662828,
        "Argument of Periapsis(deg)": 0.008365883508269684,
        "Eccentricity": 0.0,
        "Inclination(deg)": 53.0,
        "Latitude(deg)": -36.46461611299772,
        "Longitude(deg)": -122.35401662681608,
        "Mean Anomaly(deg)": 227.77124888536113,
        "RAAN(deg)": 124.98754951814067,
        "Satellite Name": "Starlink Shell 1 563",
        "Satellite Number": 563,
        "Semi-Major Axis(m)": 6931778.249405717,
        "Time(s)": 240
    },
    {
        "Altitude(m)": 565245.2997195511,
        "Argument of Periapsis(deg)": 0.008714461987780921,
        "Eccentricity": 0.0,
        "Inclination(deg)": 53.0,
        "Latitude(deg)": -36.88034608584925,
        "Longitude(deg)": -121.81264648408184,
        "Mean Anomaly(deg)": 228.3980800889179,
        "RAAN(deg)": 124.9870307480632,
        "Satellite Name": "Starlink Shell 1 563",
        "Satellite Number": 563,
        "Semi-Major Axis(m)": 6931778.249405717,
        "Time(s)": 250
    },
    {
        "Altitude(m)": 565414.2695475557,
        "Argument of Periapsis(deg)": 0.009063040467292158,
        "Eccentricity": 0.0,
        "Inclination(deg)": 53.0,
        "Latitude(deg)": -37.2931489723258,
        "Longitude(deg)": -121.26496902134363,
        "Mean Anomaly(deg)": 229.02491129247463,
        "RAAN(deg)": 124.98651197798571,
        "Satellite Name": "Starlink Shell 1 563",
        "Satellite Number": 563,
        "Semi-Major Axis(m)": 6931778.249405717,
        "Time(s)": 260
    },
    {
        "Altitude(m)": 565582.2909306046,
        "Argument of Periapsis(deg)": 0.009411618946803396,
        "Eccentricity": 0.0,
        "Inclination(deg)": 53.0,
        "Latitude(deg)": -37.70295023479023,
        "Longitude(deg)": -120.71086484806905,
        "Mean Anomaly(deg)": 229.65174249603132,
        "RAAN(deg)": 124.98599320790825,
        "Satellite Name": "Starlink Shell 1 563",
        "Satellite Number": 563,
        "Semi-Major Axis(m)": 6931778.249405717,
        "Time(s)": 270
    },
    {
        "Altitude(m)": 565749.2989263943,
        "Argument of Periapsis(deg)": 0.009760197426314633,
        "Eccentricity": 0.0,
        "Inclination(deg)": 53.0,
        "Latitude(deg)": -38.109673662392176,
        "Longitude(deg)": -120.15021493681867,
        "Mean Anomaly(deg)": 230.27857369958804,
        "RAAN(deg)": 124.98547443783077,
        "Satellite Name": "Starlink Shell 1 563",
        "Satellite Number": 563,
        "Semi-Major Axis(m)": 6931778.249405717,
        "Time(s)": 280
    },
    {
        "Altitude(m)": 565915.2288989191,
        "Argument of Periapsis(deg)": 0.01010877590582587,
        "Eccentricity": 0.0,
        "Inclination(deg)": 53.0,
        "Latitude(deg)": -38.51324134536874,
        "Longitude(deg)": -119.58290026672702,
        "Mean Anomaly(deg)": 230.9054049031447,
        "RAAN(deg)": 124.9849556677533,
        "Satellite Name": "Starlink Shell 1 563",
        "Satellite Number": 563,
        "Semi-Major Axis(m)": 6931778.249405717,
        "Time(s)": 290
    },
    {
        "Altitude(m)": 566080.0165472269,
        "Argument of Periapsis(deg)": 0.010457354385337106,
        "Eccentricity": 0.0,
        "Inclination(deg)": 53.0,
        "Latitude(deg)": -38.91357365087958,
        "Longitude(deg)": -119.00880147948553,
        "Mean Anomaly(deg)": 231.53223610670145,
        "RAAN(deg)": 124.98443689767583,
        "Satellite Name": "Starlink Shell 1 563",
        "Satellite Number": 563,
        "Semi-Major Axis(m)": 6931778.249405717,
        "Time(s)": 300
    },
    {
        "Altitude(m)": 566243.5979339879,
        "Argument of Periapsis(deg)": 0.010805932864848343,
        "Eccentricity": 0.0,
        "Inclination(deg)": 53.0,
        "Latitude(deg)": -39.310589200580985,
        "Longitude(deg)": -118.4278000613052,
        "Mean Anomaly(deg)": 232.1590673102582,
        "RAAN(deg)": 124.98391812759837,
        "Satellite Name": "Starlink Shell 1 563",
        "Satellite Number": 563,
        "Semi-Major Axis(m)": 6931778.249405717,
        "Time(s)": 310
    },
    {
        "Altitude(m)": 566405.9095139282,
        "Argument of Periapsis(deg)": 0.01115451134435958,
        "Eccentricity": 0.0,
        "Inclination(deg)": 53.0,
        "Latitude(deg)": -39.70420485016793,
        "Longitude(deg)": -117.8397780257046,
        "Mean Anomaly(deg)": 232.7858985138149,
        "RAAN(deg)": 124.98339935752088,
        "Satellite Name": "Starlink Shell 1 563",
        "Satellite Number": 563,
        "Semi-Major Axis(m)": 6931778.249405717,
        "Time(s)": 320
    },
    {
        "Altitude(m)": 566566.888162017,
        "Argument of Periapsis(deg)": 0.011503089823870818,
        "Eccentricity": 0.0,
        "Inclination(deg)": 53.0,
        "Latitude(deg)": -40.09433567111923,
        "Longitude(deg)": -117.2446176105914,
        "Mean Anomaly(deg)": 233.41272971737163,
        "RAAN(deg)": 124.98288058744342,
        "Satellite Name": "Starlink Shell 1 563",
        "Satellite Number": 563,
        "Semi-Major Axis(m)": 6931778.249405717,
        "Time(s)": 330
    },
    {
        "Altitude(m)": 566726.4712014962,
        "Argument of Periapsis(deg)": 0.011851668303382053,
        "Eccentricity": 0.0,
        "Inclination(deg)": 53.0,
        "Latitude(deg)": -40.480894934898345,
        "Longitude(deg)": -116.64220250309094,
        "Mean Anomaly(deg)": 234.03956092092832,
        "RAAN(deg)": 124.98236181736594,
        "Satellite Name": "Starlink Shell 1 563",
        "Satellite Number": 563,
        "Semi-Major Axis(m)": 6931778.249405717,
        "Time(s)": 340
    },
    {
        "Altitude(m)": 566884.596431673,
        "Argument of Periapsis(deg)": 0.012200246782893292,
        "Eccentricity": 0.0,
        "Inclination(deg)": 53.0,
        "Latitude(deg)": -40.863794099881844,
        "Longitude(deg)": -116.03241756693268,
        "Mean Anomaly(deg)": 234.666392124485,
        "RAAN(deg)": 124.98184304728845,
        "Satellite Name": "Starlink Shell 1 563",
        "Satellite Number": 563,
        "Semi-Major Axis(m)": 6931778.249405717,
        "Time(s)": 350
    },
    {
        "Altitude(m)": 567041.2021554782,
        "Argument of Periapsis(deg)": 0.012548825262404526,
        "Eccentricity": 0.0,
        "Inclination(deg)": 53.0,
        "Latitude(deg)": -41.242942801298845,
        "Longitude(deg)": -115.41514858580513,
        "Mean Anomaly(deg)": -124.70677667195825,
        "RAAN(deg)": 124.981324277211,
        "Satellite Name": "Starlink Shell 1 563",
        "Satellite Number": 563,
        "Semi-Major Axis(m)": 6931778.249405717,
        "Time(s)": 360
    },
    {
        "Altitude(m)": 567196.2272068178,
        "Argument of Periapsis(deg)": 0.012897403741915765,
        "Eccentricity": 0.0,
        "Inclination(deg)": 53.0,
        "Latitude(deg)": -41.61824884447967,
        "Longitude(deg)": -114.79028353605926,
        "Mean Anomaly(deg)": -124.07994546840149,
        "RAAN(deg)": 124.98080550713354,
        "Satellite Name": "Starlink Shell 1 563",
        "Satellite Number": 563,
        "Semi-Major Axis(m)": 6931778.249405717,
        "Time(s)": 370
    }
]